STARLINK-35955          
1 66635U 25271U   25344.25002315 -.02041486  00000+0 -27436-1 0  9998
2 66635  53.1600 199.1705 0001131  99.2139 115.7183 15.60826020  3845
STARLINK-35968          
1 66636U 25271V   25344.25002315 -.02036599  00000+0 -27365-1 0  9999
2 66636  53.1597 199.1661 0001118 103.0381 113.8115 15.60822740  3849
STARLINK-35953          
1 66637U 25271W   25344.25002315 -.02046284  00000+0 -27509-1 0  9992
2 66637  53.1596 199.1623 0001047  93.3292 125.4379 15.60828135  3845
STARLINK-35972          
1 66638U 25271X   25344.25002315 -.02035404  00000+0 -27349-1 0  9997
2 66638  53.1595 199.1588 0001020  94.7564 125.9287 15.60821016  3847
STARLINK-35908          
1 66639U 25271Y   25344.25002315 -.02036518  00000+0 -27365-1 0  9993
2 66639  53.1597 199.1544 0001023  93.0570 129.5444 15.60821859  3844
STARLINK-35921          
1 66640U 25271Z   25344.25002315 -.02033921  00000+0 -27327-1 0  9998
2 66640  53.1596 199.1504 0001067 102.4400 122.0784 15.60820075  3840
STARLINK-35923          
1 66641U 25271AA  25344.25002315 -.02035212  00000+0 -27346-1 0  9995
2 66641  53.1600 199.1336 0001060  99.8764 132.3092 15.60821039  3842
STARLINK-35926          
1 66642U 25271AB  25344.25002315 -.02035035  00000+0 -27344-1 0  9997
2 66642  53.1598 199.1384 0000942  85.1914 145.0783 15.60820952  3600
STARLINK-35918          
1 66643U 25271AC  25344.25002315 -.02034044  00000+0 -27328-1 0  9999
2 66643  53.1597 199.1465 0001071 103.0576 123.3775 15.60820245  3849
STARLINK-35938          
1 66644U 25271AD  25344.25002315 -.02036204  00000+0 -27359-1 0  9994
2 66644  53.1599 199.1426 0001079 105.2357 123.1151 15.60822295  3841
SHENZHOU-22             
1 66645U 25272A   25344.28052965  .00034646  00000+0  43407-3 0  9993
2 66645  41.4682  31.6356 0008802  10.5172 349.5849 15.59014677263572
COSMOS 2597 (RODNIK-S *)
1 66647U 25273A   25344.29863944  .00000048  00000+0  27869-3 0  9997
2 66647  82.4985 287.9648 0007943 294.9615  65.0639 12.41951295  1830
