CCSDS_OMM_VERS = 2.0
CREATION_DATE  = 
ORIGINATOR     = 

OBJECT_NAME    = STARLINK-35955
OBJECT_ID      = 2025-271U
CENTER_NAME    = EARTH
REF_FRAME      = TEME
TIME_SYSTEM    = UTC
MEAN_ELEMENT_THEORY = SGP/SGP4

EPOCH          = 2025-12-10T06:00:02.000160
MEAN_MOTION    = 15.60826020
ECCENTRICITY   = .00011318
INCLINATION    = 53.1600
RA_OF_ASC_NODE = 199.1705
ARG_OF_PERICENTER = 99.2139
MEAN_ANOMALY   = 115.7183

EPHEMERIS_TYPE = 0
CLASSIFICATION_TYPE = U
NORAD_CAT_ID   = 66635
ELEMENT_SET_NO = 999
REV_AT_EPOCH   = 384
BSTAR          = -.27436077E-1
MEAN_MOTION_DOT = -.2041486E-1
MEAN_MOTION_DDOT = 0

CCSDS_OMM_VERS = 2.0
CREATION_DATE  = 
ORIGINATOR     = 

OBJECT_NAME    = STARLINK-35968
OBJECT_ID      = 2025-271V
CENTER_NAME    = EARTH
REF_FRAME      = TEME
TIME_SYSTEM    = UTC
MEAN_ELEMENT_THEORY = SGP/SGP4

EPOCH          = 2025-12-10T06:00:02.000160
MEAN_MOTION    = 15.60822740
ECCENTRICITY   = .00011185
INCLINATION    = 53.1597
RA_OF_ASC_NODE = 199.1661
ARG_OF_PERICENTER = 103.0381
MEAN_ANOMALY   = 113.8115

EPHEMERIS_TYPE = 0
CLASSIFICATION_TYPE = U
NORAD_CAT_ID   = 66636
ELEMENT_SET_NO = 999
REV_AT_EPOCH   = 384
BSTAR          = -.27364514E-1
MEAN_MOTION_DOT = -.2036599E-1
MEAN_MOTION_DDOT = 0

CCSDS_OMM_VERS = 2.0
CREATION_DATE  = 
ORIGINATOR     = 

OBJECT_NAME    = STARLINK-35953
OBJECT_ID      = 2025-271W
CENTER_NAME    = EARTH
REF_FRAME      = TEME
TIME_SYSTEM    = UTC
MEAN_ELEMENT_THEORY = SGP/SGP4

EPOCH          = 2025-12-10T06:00:02.000160
MEAN_MOTION    = 15.60828135
ECCENTRICITY   = .0001047
INCLINATION    = 53.1596
RA_OF_ASC_NODE = 199.1623
ARG_OF_PERICENTER = 93.3292
MEAN_ANOMALY   = 125.4379

EPHEMERIS_TYPE = 0
CLASSIFICATION_TYPE = U
NORAD_CAT_ID   = 66637
ELEMENT_SET_NO = 999
REV_AT_EPOCH   = 384
BSTAR          = -.2750867E-1
MEAN_MOTION_DOT = -.2046284E-1
MEAN_MOTION_DDOT = 0

CCSDS_OMM_VERS = 2.0
CREATION_DATE  = 
ORIGINATOR     = 

OBJECT_NAME    = STARLINK-35972
OBJECT_ID      = 2025-271X
CENTER_NAME    = EARTH
REF_FRAME      = TEME
TIME_SYSTEM    = UTC
MEAN_ELEMENT_THEORY = SGP/SGP4

EPOCH          = 2025-12-10T06:00:02.000160
MEAN_MOTION    = 15.60821016
ECCENTRICITY   = .00010206
INCLINATION    = 53.1595
RA_OF_ASC_NODE = 199.1588
ARG_OF_PERICENTER = 94.7564
MEAN_ANOMALY   = 125.9287

EPHEMERIS_TYPE = 0
CLASSIFICATION_TYPE = U
NORAD_CAT_ID   = 66638
ELEMENT_SET_NO = 999
REV_AT_EPOCH   = 384
BSTAR          = -.27349071E-1
MEAN_MOTION_DOT = -.2035404E-1
MEAN_MOTION_DDOT = 0

CCSDS_OMM_VERS = 2.0
CREATION_DATE  = 
ORIGINATOR     = 

OBJECT_NAME    = STARLINK-35908
OBJECT_ID      = 2025-271Y
CENTER_NAME    = EARTH
REF_FRAME      = TEME
TIME_SYSTEM    = UTC
MEAN_ELEMENT_THEORY = SGP/SGP4

EPOCH          = 2025-12-10T06:00:02.000160
MEAN_MOTION    = 15.60821859
ECCENTRICITY   = .0001023
INCLINATION    = 53.1597
RA_OF_ASC_NODE = 199.1544
ARG_OF_PERICENTER = 93.0570
MEAN_ANOMALY   = 129.5444

EPHEMERIS_TYPE = 0
CLASSIFICATION_TYPE = U
NORAD_CAT_ID   = 66639
ELEMENT_SET_NO = 999
REV_AT_EPOCH   = 384
BSTAR          = -.27365293E-1
MEAN_MOTION_DOT = -.2036518E-1
MEAN_MOTION_DDOT = 0

CCSDS_OMM_VERS = 2.0
CREATION_DATE  = 
ORIGINATOR     = 

OBJECT_NAME    = STARLINK-35921
OBJECT_ID      = 2025-271Z
CENTER_NAME    = EARTH
REF_FRAME      = TEME
TIME_SYSTEM    = UTC
MEAN_ELEMENT_THEORY = SGP/SGP4

EPOCH          = 2025-12-10T06:00:02.000160
MEAN_MOTION    = 15.60820075
ECCENTRICITY   = .00010678
INCLINATION    = 53.1596
RA_OF_ASC_NODE = 199.1504
ARG_OF_PERICENTER = 102.4400
MEAN_ANOMALY   = 122.0784

EPHEMERIS_TYPE = 0
CLASSIFICATION_TYPE = U
NORAD_CAT_ID   = 66640
ELEMENT_SET_NO = 999
REV_AT_EPOCH   = 384
BSTAR          = -.27326743E-1
MEAN_MOTION_DOT = -.2033921E-1
MEAN_MOTION_DDOT = 0

CCSDS_OMM_VERS = 2.0
CREATION_DATE  = 
ORIGINATOR     = 

OBJECT_NAME    = STARLINK-35923
OBJECT_ID      = 2025-271AA
CENTER_NAME    = EARTH
REF_FRAME      = TEME
TIME_SYSTEM    = UTC
MEAN_ELEMENT_THEORY = SGP/SGP4

EPOCH          = 2025-12-10T06:00:02.000160
MEAN_MOTION    = 15.60821039
ECCENTRICITY   = .00010607
INCLINATION    = 53.1600
RA_OF_ASC_NODE = 199.1336
ARG_OF_PERICENTER = 99.8764
MEAN_ANOMALY   = 132.3092

EPHEMERIS_TYPE = 0
CLASSIFICATION_TYPE = U
NORAD_CAT_ID   = 66641
ELEMENT_SET_NO = 999
REV_AT_EPOCH   = 384
BSTAR          = -.27345667E-1
MEAN_MOTION_DOT = -.2035212E-1
MEAN_MOTION_DDOT = 0

CCSDS_OMM_VERS = 2.0
CREATION_DATE  = 
ORIGINATOR     = 

OBJECT_NAME    = STARLINK-35926
OBJECT_ID      = 2025-271AB
CENTER_NAME    = EARTH
REF_FRAME      = TEME
TIME_SYSTEM    = UTC
MEAN_ELEMENT_THEORY = SGP/SGP4

EPOCH          = 2025-12-10T06:00:02.000160
MEAN_MOTION    = 15.60820952
ECCENTRICITY   = .00009423
INCLINATION    = 53.1598
RA_OF_ASC_NODE = 199.1384
ARG_OF_PERICENTER = 85.1914
MEAN_ANOMALY   = 145.0783

EPHEMERIS_TYPE = 0
CLASSIFICATION_TYPE = U
NORAD_CAT_ID   = 66642
ELEMENT_SET_NO = 999
REV_AT_EPOCH   = 360
BSTAR          = -.27344356E-1
MEAN_MOTION_DOT = -.2035035E-1
MEAN_MOTION_DDOT = 0

CCSDS_OMM_VERS = 2.0
CREATION_DATE  = 
ORIGINATOR     = 

OBJECT_NAME    = STARLINK-35918
OBJECT_ID      = 2025-271AC
CENTER_NAME    = EARTH
REF_FRAME      = TEME
TIME_SYSTEM    = UTC
MEAN_ELEMENT_THEORY = SGP/SGP4

EPOCH          = 2025-12-10T06:00:02.000160
MEAN_MOTION    = 15.60820245
ECCENTRICITY   = .00010711
INCLINATION    = 53.1597
RA_OF_ASC_NODE = 199.1465
ARG_OF_PERICENTER = 103.0576
MEAN_ANOMALY   = 123.3775

EPHEMERIS_TYPE = 0
CLASSIFICATION_TYPE = U
NORAD_CAT_ID   = 66643
ELEMENT_SET_NO = 999
REV_AT_EPOCH   = 384
BSTAR          = -.27328418E-1
MEAN_MOTION_DOT = -.2034044E-1
MEAN_MOTION_DDOT = 0

CCSDS_OMM_VERS = 2.0
CREATION_DATE  = 
ORIGINATOR     = 

OBJECT_NAME    = STARLINK-35938
OBJECT_ID      = 2025-271AD
CENTER_NAME    = EARTH
REF_FRAME      = TEME
TIME_SYSTEM    = UTC
MEAN_ELEMENT_THEORY = SGP/SGP4

EPOCH          = 2025-12-10T06:00:02.000160
MEAN_MOTION    = 15.60822295
ECCENTRICITY   = .00010791
INCLINATION    = 53.1599
RA_OF_ASC_NODE = 199.1426
ARG_OF_PERICENTER = 105.2357
MEAN_ANOMALY   = 123.1151

EPHEMERIS_TYPE = 0
CLASSIFICATION_TYPE = U
NORAD_CAT_ID   = 66644
ELEMENT_SET_NO = 999
REV_AT_EPOCH   = 384
BSTAR          = -.27359362E-1
MEAN_MOTION_DOT = -.2036204E-1
MEAN_MOTION_DDOT = 0

CCSDS_OMM_VERS = 2.0
CREATION_DATE  = 
ORIGINATOR     = 

OBJECT_NAME    = SHENZHOU-22
OBJECT_ID      = 2025-272A
CENTER_NAME    = EARTH
REF_FRAME      = TEME
TIME_SYSTEM    = UTC
MEAN_ELEMENT_THEORY = SGP/SGP4

EPOCH          = 2025-12-10T06:43:57.761760
MEAN_MOTION    = 15.59014677
ECCENTRICITY   = .00088021
INCLINATION    = 41.4682
RA_OF_ASC_NODE = 31.6356
ARG_OF_PERICENTER = 10.5172
MEAN_ANOMALY   = 349.5849

EPHEMERIS_TYPE = 0
CLASSIFICATION_TYPE = U
NORAD_CAT_ID   = 66645
ELEMENT_SET_NO = 999
REV_AT_EPOCH   = 26357
BSTAR          = .43406543E-3
MEAN_MOTION_DOT = .34646E-3
MEAN_MOTION_DDOT = 0

CCSDS_OMM_VERS = 2.0
CREATION_DATE  = 
ORIGINATOR     = 

OBJECT_NAME    = COSMOS 2597 (RODNIK-S 22)
OBJECT_ID      = 2025-273A
CENTER_NAME    = EARTH
REF_FRAME      = TEME
TIME_SYSTEM    = UTC
MEAN_ELEMENT_THEORY = SGP/SGP4

EPOCH          = 2025-12-10T07:10:02.447616
MEAN_MOTION    = 12.41951295
ECCENTRICITY   = .00079436
INCLINATION    = 82.4985
RA_OF_ASC_NODE = 287.9648
ARG_OF_PERICENTER = 294.9615
MEAN_ANOMALY   = 65.0639

EPHEMERIS_TYPE = 0
CLASSIFICATION_TYPE = U
NORAD_CAT_ID   = 66647
ELEMENT_SET_NO = 999
REV_AT_EPOCH   = 183
BSTAR          = .27868972E-3
MEAN_MOTION_DOT = .48E-6
MEAN_MOTION_DDOT = 0

